{"fetched_at":"2026-07-12T07:16:05.878Z","source":"https://celestrak.org/NORAD/elements/gp.php?NAME=UMBRA&FORMAT=JSON","constellation":"umbra","records":[{"OBJECT_NAME":"UMBRA-07","OBJECT_ID":"2023-174AT","EPOCH":"2026-07-11T16:49:43.013856","CLASSIFICATION_TYPE":"U","MEAN_MOTION":15.09580721,"ECCENTRICITY":0.00026633,"INCLINATION":97.3787,"RA_OF_ASC_NODE":247.5395,"ARG_OF_PERICENTER":24.9199,"MEAN_ANOMALY":335.2158,"EPHEMERIS_TYPE":0,"NORAD_CAT_ID":58297,"ELEMENT_SET_NO":999,"REV_AT_EPOCH":14711,"BSTAR":0.00038913488,"MEAN_MOTION_DOT":0.00006191,"MEAN_MOTION_DDOT":0},{"OBJECT_NAME":"UMBRA-09","OBJECT_ID":"2024-149CB","EPOCH":"2026-07-09T05:03:03.129696","CLASSIFICATION_TYPE":"U","MEAN_MOTION":15.18723998,"ECCENTRICITY":0.0001785,"INCLINATION":97.697,"RA_OF_ASC_NODE":277.8023,"ARG_OF_PERICENTER":214.0416,"MEAN_ANOMALY":146.0703,"EPHEMERIS_TYPE":0,"NORAD_CAT_ID":60541,"ELEMENT_SET_NO":999,"REV_AT_EPOCH":10406,"BSTAR":0.00051690564,"MEAN_MOTION_DOT":0.00010667,"MEAN_MOTION_DDOT":0},{"OBJECT_NAME":"UMBRA-10","OBJECT_ID":"2024-149CH","EPOCH":"2026-07-11T18:42:29.978496","CLASSIFICATION_TYPE":"U","MEAN_MOTION":15.18785708,"ECCENTRICITY":0.00014713,"INCLINATION":97.6983,"RA_OF_ASC_NODE":280.4472,"ARG_OF_PERICENTER":169.7068,"MEAN_ANOMALY":190.4196,"EPHEMERIS_TYPE":0,"NORAD_CAT_ID":60547,"ELEMENT_SET_NO":999,"REV_AT_EPOCH":10446,"BSTAR":0.00043622735,"MEAN_MOTION_DOT":0.00009005,"MEAN_MOTION_DDOT":0},{"OBJECT_NAME":"UMBRA-11","OBJECT_ID":"2025-276CL","EPOCH":"2026-07-11T18:16:40.924128","CLASSIFICATION_TYPE":"U","MEAN_MOTION":15.27688632,"ECCENTRICITY":0.00022639,"INCLINATION":97.42,"RA_OF_ASC_NODE":267.2537,"ARG_OF_PERICENTER":195.0308,"MEAN_ANOMALY":165.0864,"EPHEMERIS_TYPE":0,"NORAD_CAT_ID":66748,"ELEMENT_SET_NO":999,"REV_AT_EPOCH":3424,"BSTAR":0.00047852666,"MEAN_MOTION_DOT":0.00012884,"MEAN_MOTION_DDOT":0},{"OBJECT_NAME":"UMBRA-12","OBJECT_ID":"2026-004J","EPOCH":"2026-07-11T13:28:18.759936","CLASSIFICATION_TYPE":"U","MEAN_MOTION":14.89515859,"ECCENTRICITY":0.00076431,"INCLINATION":97.8019,"RA_OF_ASC_NODE":190.996,"ARG_OF_PERICENTER":63.0108,"MEAN_ANOMALY":297.1889,"EPHEMERIS_TYPE":0,"NORAD_CAT_ID":67371,"ELEMENT_SET_NO":999,"REV_AT_EPOCH":2693,"BSTAR":0.00027038623,"MEAN_MOTION_DOT":0.00002522,"MEAN_MOTION_DDOT":0}]}
