UMBRA-07                
1 58297U 23174AT  26192.70119229  .00006191  00000+0  38913-3 0  9992
2 58297  97.3787 247.5395 0002663  24.9199 335.2158 15.09580721147119
UMBRA-09                
1 60541U 24149CB  26190.21045289  .00010667  00000+0  51691-3 0  9999
2 60541  97.6970 277.8023 0001785 214.0416 146.0703 15.18723998104069
UMBRA-10                
1 60547U 24149CH  26192.77951364  .00009005  00000+0  43623-3 0  9998
2 60547  97.6983 280.4472 0001471 169.7068 190.4196 15.18785708104468
UMBRA-11                
1 66748U 25276CL  26192.76158477  .00012884  00000+0  47853-3 0  9990
2 66748  97.4200 267.2537 0002263 195.0308 165.0864 15.27688632 34247
UMBRA-12                
1 67371U 26004J   26192.56132824  .00002522  00000+0  27039-3 0  9991
2 67371  97.8019 190.9960 0007643  63.0108 297.1889 14.89515859 26931
